SIRIUS-1                
1 26390U 00035A   12352.62313286 -.00000024  00000-0  00000+0 0  1125
2 26390  60.4032 245.0687 2722901 270.6145  58.8015  1.00278439 45670
SIRIUS-2                
1 26483U 00051A   12351.28978873  .00000064  00000-0  10000-3 0  7489
2 26483  64.0104 124.8427 2693990 269.4529  59.9499  1.00278951 44997
SIRIUS-3                
1 26626U 00077A   12350.95696483 -.00000146  00000-0  10000-3 0   387
2 26626  64.3494   4.8809 2689097 269.5996  59.8352  1.00275048 44120
XM-2 (ROCK)             
1 26724U 01012A   12352.39226781 -.00000031  00000-0  10000-3 0  3933
2 26724   0.0801 278.9589 0002857  50.4274 143.0022  1.00271197 43124
XM-1 (ROLL)             
1 26761U 01018A   12353.07305514 -.00000030  00000-0  10000-3 0  2318
2 26761   0.0815 232.3088 0003700 339.3499 146.4715  1.00271340 42590
XM-3 (RHYTHM)           
1 28626U 05008A   12348.34444348 -.00000206  00000-0  10000-3 0  2928
2 28626   0.0313 173.0686 0000349 329.6027 338.6859  1.00270532 28595
XM-4 (BLUES)            
1 29520U 06049A   12350.36880700 -.00000029  00000-0  10000-3 0  9761
2 29520   0.0278 193.7265 0000426 175.4213  92.7944  1.00271288 22553
